INMARSAT 4-F2           
1 28899U 05044A   26062.71989259 -.00000272  00000+0  00000+0 0  9995
2 28899   4.9562  43.8039 0002627 317.4522 202.8795  1.00271397 74466
GSAT-8                  
1 37605U 11022A   26062.74004153  .00000072  00000+0  00000+0 0  9994
2 37605   1.8586  83.1670 0007413 214.7348 185.0542  1.00271983 52160
LUCH-5A                 
1 37951U 11074B   26062.83352980 -.00000057  00000+0  00000+0 0  9993
2 37951   8.4858  75.3546 0004005 243.8626 309.5287  1.00275356 51997
SES-5                   
1 38652U 12036A   26062.80140188  .00000020  00000+0  00000+0 0  9992
2 38652   0.0612 309.6626 0002033  28.2758 117.0916  1.00271730 43404
GSAT-10                 
1 38779U 12051B   26062.45600324 -.00000179  00000+0  00000+0 0  9999
2 38779   0.0759 263.9438 0004157 175.5434 328.8469  1.00273302 49032
LUCH-5B                 
1 38977U 12061A   26062.90224160 -.00000146  00000+0  00000+0 0  9994
2 38977  10.2575  50.9099 0004392 223.3648 195.8772  1.00271596 48556
ASTRA 5B                
1 39617U 14011B   26062.80512854  .00000123  00000+0  00000+0 0  9996
2 39617   0.0923 298.2159 0004176  26.4659 150.1995  1.00270604 43612
LUCH-5V                 
1 39727U 14023A   26062.58232287 -.00000280  00000+0  00000+0 0  9990
2 39727   4.8727  70.7815 0002985 276.2350 118.6917  1.00271930 43301
GSAT-15                 
1 41028U 15065A   26062.71339414 -.00000271  00000+0  00000+0 0  9999
2 41028   0.0913 270.0592 0000869  89.4282 152.2801  1.00270419 37745
EUTELSAT 117 WEST B     
1 41589U 16038B   26062.49199334 -.00000026  00000+0  00000+0 0  9990
2 41589   0.0336  12.5223 0000104 202.0332   6.8113  1.00271412 35604
SES-15                  
1 42709U 17026A   26062.70355468  .00000046  00000+0  00000+0 0  9990
2 42709   0.0468 313.0615 0000684  28.7701 303.7327  1.00270029  6376
QZS-2 (MICHIBIKI-2)     
1 42738U 17028A   26062.69035645 -.00000177  00000+0  00000+0 0  9990
2 42738  39.5914 244.6899 0745773 270.3237  36.6065  1.00262193  6563
QZS-3 (MICHIBIKI-3)     
1 42917U 17048A   26062.75425495 -.00000362  00000+0  00000+0 0  9990
2 42917   0.0736 218.1558 0002245 134.9982 206.8509  1.00276139 31205
QZS-4 (MICHIBIKI-4)     
1 42965U 17062A   26062.71119281 -.00000343  00000+0  00000+0 0  9997
2 42965  40.1734 344.8321 0748758 269.8785 303.2235  1.00280942 30744
BEIDOU-3 G1             
1 43683U 18085A   26062.82815645 -.00000291  00000+0  00000+0 0  9992
2 43683   2.8091 100.4023 0001324  26.5692 112.7898  1.00268737 27005
EUTELSAT 5 WEST B       
1 44624U 19067A   26062.79940852 -.00000056  00000+0  00000+0 0  9993
2 44624   0.0961 309.5325 0003204  41.5845  93.1887  1.00272501 23381
BEIDOU-3 G2             
1 45344U 20017A   26062.81630861 -.00000152  00000+0  00000+0 0  9996
2 45344   2.6532  45.5615 0002743 302.7501 187.1589  1.00271181 22206
