[{"OBJECT_NAME":"INMARSAT 4-F2 (SOUTHPAN/PRN 122)","OBJECT_ID":"2005-044A","EPOCH":"2026-03-03T17:16:38.719776","MEAN_MOTION":1.00271397,"ECCENTRICITY":0.0002627,"INCLINATION":4.9562,"RA_OF_ASC_NODE":43.8039,"ARG_OF_PERICENTER":317.4522,"MEAN_ANOMALY":202.8795,"EPHEMERIS_TYPE":0,"CLASSIFICATION_TYPE":"U","NORAD_CAT_ID":28899,"ELEMENT_SET_NO":999,"REV_AT_EPOCH":7446,"BSTAR":0,"MEAN_MOTION_DOT":-2.72e-6,"MEAN_MOTION_DDOT":0},{"OBJECT_NAME":"GSAT-8 (GAGAN/PRN 127)","OBJECT_ID":"2011-022A","EPOCH":"2026-03-03T17:45:39.588192","MEAN_MOTION":1.00271983,"ECCENTRICITY":0.0007413,"INCLINATION":1.8586,"RA_OF_ASC_NODE":83.167,"ARG_OF_PERICENTER":214.7348,"MEAN_ANOMALY":185.0542,"EPHEMERIS_TYPE":0,"CLASSIFICATION_TYPE":"U","NORAD_CAT_ID":37605,"ELEMENT_SET_NO":999,"REV_AT_EPOCH":5216,"BSTAR":0,"MEAN_MOTION_DOT":7.2e-7,"MEAN_MOTION_DDOT":0},{"OBJECT_NAME":"LUCH 5A (SDCM/PRN 140)","OBJECT_ID":"2011-074B","EPOCH":"2026-03-03T20:00:16.974720","MEAN_MOTION":1.00275356,"ECCENTRICITY":0.0004005,"INCLINATION":8.4858,"RA_OF_ASC_NODE":75.3546,"ARG_OF_PERICENTER":243.8626,"MEAN_ANOMALY":309.5287,"EPHEMERIS_TYPE":0,"CLASSIFICATION_TYPE":"U","NORAD_CAT_ID":37951,"ELEMENT_SET_NO":999,"REV_AT_EPOCH":5199,"BSTAR":0,"MEAN_MOTION_DOT":-5.7e-7,"MEAN_MOTION_DDOT":0},{"OBJECT_NAME":"SES-5 (EGNOS/PRN 136)","OBJECT_ID":"2012-036A","EPOCH":"2026-03-03T19:14:01.122432","MEAN_MOTION":1.0027173,"ECCENTRICITY":0.0002033,"INCLINATION":0.0612,"RA_OF_ASC_NODE":309.6626,"ARG_OF_PERICENTER":28.2758,"MEAN_ANOMALY":117.0916,"EPHEMERIS_TYPE":0,"CLASSIFICATION_TYPE":"U","NORAD_CAT_ID":38652,"ELEMENT_SET_NO":999,"REV_AT_EPOCH":4340,"BSTAR":0,"MEAN_MOTION_DOT":2.0e-7,"MEAN_MOTION_DDOT":0},{"OBJECT_NAME":"GSAT-10 (GAGAN/PRN 128)","OBJECT_ID":"2012-051B","EPOCH":"2026-03-03T10:56:38.679936","MEAN_MOTION":1.00273302,"ECCENTRICITY":0.0004157,"INCLINATION":0.0759,"RA_OF_ASC_NODE":263.9438,"ARG_OF_PERICENTER":175.5434,"MEAN_ANOMALY":328.8469,"EPHEMERIS_TYPE":0,"CLASSIFICATION_TYPE":"U","NORAD_CAT_ID":38779,"ELEMENT_SET_NO":999,"REV_AT_EPOCH":4903,"BSTAR":0,"MEAN_MOTION_DOT":-1.79e-6,"MEAN_MOTION_DDOT":0},{"OBJECT_NAME":"LUCH 5B (SDCM/PRN 125)","OBJECT_ID":"2012-061A","EPOCH":"2026-03-03T21:39:13.674240","MEAN_MOTION":1.00271596,"ECCENTRICITY":0.0004392,"INCLINATION":10.2575,"RA_OF_ASC_NODE":50.9099,"ARG_OF_PERICENTER":223.3648,"MEAN_ANOMALY":195.8772,"EPHEMERIS_TYPE":0,"CLASSIFICATION_TYPE":"U","NORAD_CAT_ID":38977,"ELEMENT_SET_NO":999,"REV_AT_EPOCH":4855,"BSTAR":0,"MEAN_MOTION_DOT":-1.46e-6,"MEAN_MOTION_DDOT":0},{"OBJECT_NAME":"ASTRA 5B (EGNOS/PRN 123)","OBJECT_ID":"2014-011B","EPOCH":"2026-03-03T19:19:23.105856","MEAN_MOTION":1.00270604,"ECCENTRICITY":0.0004176,"INCLINATION":0.0923,"RA_OF_ASC_NODE":298.2159,"ARG_OF_PERICENTER":26.4659,"MEAN_ANOMALY":150.1995,"EPHEMERIS_TYPE":0,"CLASSIFICATION_TYPE":"U","NORAD_CAT_ID":39617,"ELEMENT_SET_NO":999,"REV_AT_EPOCH":4361,"BSTAR":0,"MEAN_MOTION_DOT":1.23e-6,"MEAN_MOTION_DDOT":0},{"OBJECT_NAME":"LUCH 5V (SDCM/PRN 141)","OBJECT_ID":"2014-023A","EPOCH":"2026-03-03T13:58:32.695968","MEAN_MOTION":1.0027193,"ECCENTRICITY":0.0002985,"INCLINATION":4.8727,"RA_OF_ASC_NODE":70.7815,"ARG_OF_PERICENTER":276.235,"MEAN_ANOMALY":118.6917,"EPHEMERIS_TYPE":0,"CLASSIFICATION_TYPE":"U","NORAD_CAT_ID":39727,"ELEMENT_SET_NO":999,"REV_AT_EPOCH":4330,"BSTAR":0,"MEAN_MOTION_DOT":-2.8e-6,"MEAN_MOTION_DDOT":0},{"OBJECT_NAME":"GSAT-15 (GAGAN/PRN 139)","OBJECT_ID":"2015-065A","EPOCH":"2026-03-03T17:07:17.253696","MEAN_MOTION":1.00270419,"ECCENTRICITY":8.69e-5,"INCLINATION":0.0913,"RA_OF_ASC_NODE":270.0592,"ARG_OF_PERICENTER":89.4282,"MEAN_ANOMALY":152.2801,"EPHEMERIS_TYPE":0,"CLASSIFICATION_TYPE":"U","NORAD_CAT_ID":41028,"ELEMENT_SET_NO":999,"REV_AT_EPOCH":3774,"BSTAR":0,"MEAN_MOTION_DOT":-2.71e-6,"MEAN_MOTION_DDOT":0},{"OBJECT_NAME":"EUTELSAT 117 WEST B (WAAS/PRN 131)","OBJECT_ID":"2016-038B","EPOCH":"2026-03-03T11:48:28.224576","MEAN_MOTION":1.00271412,"ECCENTRICITY":1.04e-5,"INCLINATION":0.0336,"RA_OF_ASC_NODE":12.5223,"ARG_OF_PERICENTER":202.0332,"MEAN_ANOMALY":6.8113,"EPHEMERIS_TYPE":0,"CLASSIFICATION_TYPE":"U","NORAD_CAT_ID":41589,"ELEMENT_SET_NO":999,"REV_AT_EPOCH":3560,"BSTAR":0,"MEAN_MOTION_DOT":-2.6e-7,"MEAN_MOTION_DDOT":0},{"OBJECT_NAME":"SES-15 (WAAS/PRN 133)","OBJECT_ID":"2017-026A","EPOCH":"2026-03-03T16:53:07.124352","MEAN_MOTION":1.00270029,"ECCENTRICITY":6.84e-5,"INCLINATION":0.0468,"RA_OF_ASC_NODE":313.0615,"ARG_OF_PERICENTER":28.7701,"MEAN_ANOMALY":303.7327,"EPHEMERIS_TYPE":0,"CLASSIFICATION_TYPE":"U","NORAD_CAT_ID":42709,"ELEMENT_SET_NO":999,"REV_AT_EPOCH":637,"BSTAR":0,"MEAN_MOTION_DOT":4.6e-7,"MEAN_MOTION_DDOT":0},{"OBJECT_NAME":"QZS-2 (QZSS/PRN 194)","OBJECT_ID":"2017-028A","EPOCH":"2026-03-03T16:34:06.797280","MEAN_MOTION":1.00262193,"ECCENTRICITY":0.0745773,"INCLINATION":39.5914,"RA_OF_ASC_NODE":244.6899,"ARG_OF_PERICENTER":270.3237,"MEAN_ANOMALY":36.6065,"EPHEMERIS_TYPE":0,"CLASSIFICATION_TYPE":"U","NORAD_CAT_ID":42738,"ELEMENT_SET_NO":999,"REV_AT_EPOCH":656,"BSTAR":0,"MEAN_MOTION_DOT":-1.77e-6,"MEAN_MOTION_DDOT":0},{"OBJECT_NAME":"QZS-3 (QZSS/PRN 199)","OBJECT_ID":"2017-048A","EPOCH":"2026-03-03T18:06:07.627680","MEAN_MOTION":1.00276139,"ECCENTRICITY":0.0002245,"INCLINATION":0.0736,"RA_OF_ASC_NODE":218.1558,"ARG_OF_PERICENTER":134.9982,"MEAN_ANOMALY":206.8509,"EPHEMERIS_TYPE":0,"CLASSIFICATION_TYPE":"U","NORAD_CAT_ID":42917,"ELEMENT_SET_NO":999,"REV_AT_EPOCH":3120,"BSTAR":0,"MEAN_MOTION_DOT":-3.62e-6,"MEAN_MOTION_DDOT":0},{"OBJECT_NAME":"QZS-4 (QZSS/PRN 195)","OBJECT_ID":"2017-062A","EPOCH":"2026-03-03T17:04:07.058784","MEAN_MOTION":1.00280942,"ECCENTRICITY":0.0748758,"INCLINATION":40.1734,"RA_OF_ASC_NODE":344.8321,"ARG_OF_PERICENTER":269.8785,"MEAN_ANOMALY":303.2235,"EPHEMERIS_TYPE":0,"CLASSIFICATION_TYPE":"U","NORAD_CAT_ID":42965,"ELEMENT_SET_NO":999,"REV_AT_EPOCH":3074,"BSTAR":0,"MEAN_MOTION_DOT":-3.43e-6,"MEAN_MOTION_DDOT":0},{"OBJECT_NAME":"BEIDOU-3 G1 (PRN 130)","OBJECT_ID":"2018-085A","EPOCH":"2026-03-03T19:52:32.717280","MEAN_MOTION":1.00268737,"ECCENTRICITY":0.0001324,"INCLINATION":2.8091,"RA_OF_ASC_NODE":100.4023,"ARG_OF_PERICENTER":26.5692,"MEAN_ANOMALY":112.7898,"EPHEMERIS_TYPE":0,"CLASSIFICATION_TYPE":"U","NORAD_CAT_ID":43683,"ELEMENT_SET_NO":999,"REV_AT_EPOCH":2700,"BSTAR":0,"MEAN_MOTION_DOT":-2.91e-6,"MEAN_MOTION_DDOT":0},{"OBJECT_NAME":"EUTELSAT 5 WEST B (EGNOS/PRN 121)","OBJECT_ID":"2019-067A","EPOCH":"2026-03-03T19:11:08.896128","MEAN_MOTION":1.00272501,"ECCENTRICITY":0.0003204,"INCLINATION":0.0961,"RA_OF_ASC_NODE":309.5325,"ARG_OF_PERICENTER":41.5845,"MEAN_ANOMALY":93.1887,"EPHEMERIS_TYPE":0,"CLASSIFICATION_TYPE":"U","NORAD_CAT_ID":44624,"ELEMENT_SET_NO":999,"REV_AT_EPOCH":2338,"BSTAR":0,"MEAN_MOTION_DOT":-5.6e-7,"MEAN_MOTION_DDOT":0},{"OBJECT_NAME":"BEIDOU-3 G2 (PRN 144)","OBJECT_ID":"2020-017A","EPOCH":"2026-03-03T19:35:29.063904","MEAN_MOTION":1.00271181,"ECCENTRICITY":0.0002743,"INCLINATION":2.6532,"RA_OF_ASC_NODE":45.5615,"ARG_OF_PERICENTER":302.7501,"MEAN_ANOMALY":187.1589,"EPHEMERIS_TYPE":0,"CLASSIFICATION_TYPE":"U","NORAD_CAT_ID":45344,"ELEMENT_SET_NO":999,"REV_AT_EPOCH":2220,"BSTAR":0,"MEAN_MOTION_DOT":-1.52e-6,"MEAN_MOTION_DDOT":0}]
